STARLINK-31453          
1 59522U 24073M   26068.00945881  .00028943  00000+0  10570-2 0  9996
2 59522  43.0033 304.0819 0001812 268.3632  91.7012 15.27584354106275
FLOCK 4G-30             
1 62679U 25009BY  26068.70871344  .00013147  00000+0  49475-3 0  9999
2 62679  97.3969 150.6012 0003795 342.4152  17.6955 15.27244548121341
